ALOS (DAICHI)           
1 28931U 06002A   26049.84943666  .00001350  00000+0  23480-3 0  9996
2 28931  98.1189   5.9044 0001691  56.0917 304.0449 14.69744193 70715
H-2A R/B                
1 28932U 06002B   26049.99839830  .00007290  00000+0  37061-3 0  9999
2 28932  98.2378 195.4257 0052152 305.5590  54.0784 15.16011371 91608
RESURS-DK 1             
1 29228U 06021A   26050.08608281  .00001852  00000+0  11189-3 0  9996
2 29228  69.9323 285.1457 0003368 186.4773 173.6350 15.12628493 84711
CZ-4B R/B               
1 29507U 06046C   26050.07156621  .00004509  00000+0  23068-3 0  9999
2 29507  97.5628  95.0292 0032629 334.6434  25.3196 15.16695156 57225
CZ-2C R/B               
1 31114U 07010B   26050.26793411  .00000106  00000+0  67861-4 0  9992
2 31114  98.3971 164.4711 0058639 348.9196  11.0686 14.20239309977103
COSMO-SKYMED 1          
1 31598U 07023A   26050.27635270  .00003759  00000+0  33709-3 0  9991
2 31598  97.8864 241.1627 0001460  91.4738 268.6650 14.96384256 12156
COSMOS 2428             
1 31792U 07029A   26050.26956786  .00000194  00000+0  12961-3 0  9997
2 31792  70.9399 242.0087 0008030 297.3665  62.6638 14.12939419961496
SL-16 R/B               
1 31793U 07029B   26049.98429256 -.00000035  00000+0  68712-5 0  9994
2 31793  70.9747 211.7021 0002375 281.8901 215.0257 14.14836626962728
KORONAS-FOTON           
1 33504U 09003A   26050.08801562  .00011711  00000+0  26608-3 0  9995
2 33504  82.4305 295.2105 0009540 216.9174 143.1417 15.42820823942877
CZ-2C R/B               
1 37731U 11030B   26049.90030048  .00001447  00000+0  18838-3 0  9997
2 37731  97.8515   7.5454 0053947  52.4409  14.6084 14.81143099787314
H-2A R/B                
1 38341U 12025E   26050.18993281  .00003963  00000+0  36141-3 0  9991
2 38341  98.4709  15.7630 0045207  15.5205 344.7388 14.94998693745450
SHIJIAN-16 (SJ-16)      
1 39358U 13057A   26050.25977619  .00001164  00000+0  11666-3 0  9997
2 39358  74.9701 219.9747 0016314 159.2674 200.9180 14.92266318668750
