CCSDS_OMM_VERS = 2.0
CREATION_DATE  = 
ORIGINATOR     = 

OBJECT_NAME    = ALOS (DAICHI)
OBJECT_ID      = 2006-002A
CENTER_NAME    = EARTH
REF_FRAME      = TEME
TIME_SYSTEM    = UTC
MEAN_ELEMENT_THEORY = SGP/SGP4

EPOCH          = 2026-02-18T20:23:11.327424
MEAN_MOTION    = 14.69744193
ECCENTRICITY   = .00016916
INCLINATION    = 98.1189
RA_OF_ASC_NODE = 5.9044
ARG_OF_PERICENTER = 56.0917
MEAN_ANOMALY   = 304.0449

EPHEMERIS_TYPE = 0
CLASSIFICATION_TYPE = U
NORAD_CAT_ID   = 28931
ELEMENT_SET_NO = 999
REV_AT_EPOCH   = 7071
BSTAR          = .23480261E-3
MEAN_MOTION_DOT = .135E-4
MEAN_MOTION_DDOT = 0

CCSDS_OMM_VERS = 2.0
CREATION_DATE  = 
ORIGINATOR     = 

OBJECT_NAME    = H-2A R/B
OBJECT_ID      = 2006-002B
CENTER_NAME    = EARTH
REF_FRAME      = TEME
TIME_SYSTEM    = UTC
MEAN_ELEMENT_THEORY = SGP/SGP4

EPOCH          = 2026-02-18T23:57:41.613120
MEAN_MOTION    = 15.16011371
ECCENTRICITY   = .00521524
INCLINATION    = 98.2378
RA_OF_ASC_NODE = 195.4257
ARG_OF_PERICENTER = 305.5590
MEAN_ANOMALY   = 54.0784

EPHEMERIS_TYPE = 0
CLASSIFICATION_TYPE = U
NORAD_CAT_ID   = 28932
ELEMENT_SET_NO = 999
REV_AT_EPOCH   = 9160
BSTAR          = .37061137E-3
MEAN_MOTION_DOT = .729E-4
MEAN_MOTION_DDOT = 0

CCSDS_OMM_VERS = 2.0
CREATION_DATE  = 
ORIGINATOR     = 

OBJECT_NAME    = RESURS-DK 1
OBJECT_ID      = 2006-021A
CENTER_NAME    = EARTH
REF_FRAME      = TEME
TIME_SYSTEM    = UTC
MEAN_ELEMENT_THEORY = SGP/SGP4

EPOCH          = 2026-02-19T02:03:57.554784
MEAN_MOTION    = 15.12628493
ECCENTRICITY   = .00033683
INCLINATION    = 69.9323
RA_OF_ASC_NODE = 285.1457
ARG_OF_PERICENTER = 186.4773
MEAN_ANOMALY   = 173.6350

EPHEMERIS_TYPE = 0
CLASSIFICATION_TYPE = U
NORAD_CAT_ID   = 29228
ELEMENT_SET_NO = 999
REV_AT_EPOCH   = 8471
BSTAR          = .11188817E-3
MEAN_MOTION_DOT = .1852E-4
MEAN_MOTION_DDOT = 0

CCSDS_OMM_VERS = 2.0
CREATION_DATE  = 
ORIGINATOR     = 

OBJECT_NAME    = CZ-4B R/B
OBJECT_ID      = 2006-046C
CENTER_NAME    = EARTH
REF_FRAME      = TEME
TIME_SYSTEM    = UTC
MEAN_ELEMENT_THEORY = SGP/SGP4

EPOCH          = 2026-02-19T01:43:03.320544
MEAN_MOTION    = 15.16695156
ECCENTRICITY   = .00326298
INCLINATION    = 97.5628
RA_OF_ASC_NODE = 95.0292
ARG_OF_PERICENTER = 334.6434
MEAN_ANOMALY   = 25.3196

EPHEMERIS_TYPE = 0
CLASSIFICATION_TYPE = U
NORAD_CAT_ID   = 29507
ELEMENT_SET_NO = 999
REV_AT_EPOCH   = 5722
BSTAR          = .23067913E-3
MEAN_MOTION_DOT = .4509E-4
MEAN_MOTION_DDOT = 0

CCSDS_OMM_VERS = 2.0
CREATION_DATE  = 
ORIGINATOR     = 

OBJECT_NAME    = CZ-2C R/B
OBJECT_ID      = 2007-010B
CENTER_NAME    = EARTH
REF_FRAME      = TEME
TIME_SYSTEM    = UTC
MEAN_ELEMENT_THEORY = SGP/SGP4

EPOCH          = 2026-02-19T06:25:49.507104
MEAN_MOTION    = 14.20239309
ECCENTRICITY   = .00586393
INCLINATION    = 98.3971
RA_OF_ASC_NODE = 164.4711
ARG_OF_PERICENTER = 348.9196
MEAN_ANOMALY   = 11.0686

EPHEMERIS_TYPE = 0
CLASSIFICATION_TYPE = U
NORAD_CAT_ID   = 31114
ELEMENT_SET_NO = 999
REV_AT_EPOCH   = 97710
BSTAR          = .67860616E-4
MEAN_MOTION_DOT = .106E-5
MEAN_MOTION_DDOT = 0

CCSDS_OMM_VERS = 2.0
CREATION_DATE  = 
ORIGINATOR     = 

OBJECT_NAME    = COSMO-SKYMED 1
OBJECT_ID      = 2007-023A
CENTER_NAME    = EARTH
REF_FRAME      = TEME
TIME_SYSTEM    = UTC
MEAN_ELEMENT_THEORY = SGP/SGP4

EPOCH          = 2026-02-19T06:37:56.873280
MEAN_MOTION    = 14.96384256
ECCENTRICITY   = .00014602
INCLINATION    = 97.8864
RA_OF_ASC_NODE = 241.1627
ARG_OF_PERICENTER = 91.4738
MEAN_ANOMALY   = 268.6650

EPHEMERIS_TYPE = 0
CLASSIFICATION_TYPE = U
NORAD_CAT_ID   = 31598
ELEMENT_SET_NO = 999
REV_AT_EPOCH   = 1215
BSTAR          = .33708777E-3
MEAN_MOTION_DOT = .3759E-4
MEAN_MOTION_DDOT = 0

CCSDS_OMM_VERS = 2.0
CREATION_DATE  = 
ORIGINATOR     = 

OBJECT_NAME    = COSMOS 2428
OBJECT_ID      = 2007-029A
CENTER_NAME    = EARTH
REF_FRAME      = TEME
TIME_SYSTEM    = UTC
MEAN_ELEMENT_THEORY = SGP/SGP4

EPOCH          = 2026-02-19T06:28:10.663104
MEAN_MOTION    = 14.12939419
ECCENTRICITY   = .00080308
INCLINATION    = 70.9399
RA_OF_ASC_NODE = 242.0087
ARG_OF_PERICENTER = 297.3665
MEAN_ANOMALY   = 62.6638

EPHEMERIS_TYPE = 0
CLASSIFICATION_TYPE = U
NORAD_CAT_ID   = 31792
ELEMENT_SET_NO = 999
REV_AT_EPOCH   = 96149
BSTAR          = .12960793E-3
MEAN_MOTION_DOT = .194E-5
MEAN_MOTION_DDOT = 0

CCSDS_OMM_VERS = 2.0
CREATION_DATE  = 
ORIGINATOR     = 

OBJECT_NAME    = SL-16 R/B
OBJECT_ID      = 2007-029B
CENTER_NAME    = EARTH
REF_FRAME      = TEME
TIME_SYSTEM    = UTC
MEAN_ELEMENT_THEORY = SGP/SGP4

EPOCH          = 2026-02-18T23:37:22.877184
MEAN_MOTION    = 14.14836626
ECCENTRICITY   = .00023754
INCLINATION    = 70.9747
RA_OF_ASC_NODE = 211.7021
ARG_OF_PERICENTER = 281.8901
MEAN_ANOMALY   = 215.0257

EPHEMERIS_TYPE = 0
CLASSIFICATION_TYPE = U
NORAD_CAT_ID   = 31793
ELEMENT_SET_NO = 999
REV_AT_EPOCH   = 96272
BSTAR          = .6871158E-5
MEAN_MOTION_DOT = -.35E-6
MEAN_MOTION_DDOT = 0

CCSDS_OMM_VERS = 2.0
CREATION_DATE  = 
ORIGINATOR     = 

OBJECT_NAME    = KORONAS-FOTON
OBJECT_ID      = 2009-003A
CENTER_NAME    = EARTH
REF_FRAME      = TEME
TIME_SYSTEM    = UTC
MEAN_ELEMENT_THEORY = SGP/SGP4

EPOCH          = 2026-02-19T02:06:44.549568
MEAN_MOTION    = 15.42820823
ECCENTRICITY   = .00095409
INCLINATION    = 82.4305
RA_OF_ASC_NODE = 295.2105
ARG_OF_PERICENTER = 216.9174
MEAN_ANOMALY   = 143.1417

EPHEMERIS_TYPE = 0
CLASSIFICATION_TYPE = U
NORAD_CAT_ID   = 33504
ELEMENT_SET_NO = 999
REV_AT_EPOCH   = 94287
BSTAR          = .26608198E-3
MEAN_MOTION_DOT = .11711E-3
MEAN_MOTION_DDOT = 0

CCSDS_OMM_VERS = 2.0
CREATION_DATE  = 
ORIGINATOR     = 

OBJECT_NAME    = CZ-2C R/B
OBJECT_ID      = 2011-030B
CENTER_NAME    = EARTH
REF_FRAME      = TEME
TIME_SYSTEM    = UTC
MEAN_ELEMENT_THEORY = SGP/SGP4

EPOCH          = 2026-02-18T21:36:25.961472
MEAN_MOTION    = 14.81143099
ECCENTRICITY   = .00539471
INCLINATION    = 97.8515
RA_OF_ASC_NODE = 7.5454
ARG_OF_PERICENTER = 52.4409
MEAN_ANOMALY   = 14.6084

EPHEMERIS_TYPE = 0
CLASSIFICATION_TYPE = U
NORAD_CAT_ID   = 37731
ELEMENT_SET_NO = 999
REV_AT_EPOCH   = 78731
BSTAR          = .18838499E-3
MEAN_MOTION_DOT = .1447E-4
MEAN_MOTION_DDOT = 0

CCSDS_OMM_VERS = 2.0
CREATION_DATE  = 
ORIGINATOR     = 

OBJECT_NAME    = H-2A R/B
OBJECT_ID      = 2012-025E
CENTER_NAME    = EARTH
REF_FRAME      = TEME
TIME_SYSTEM    = UTC
MEAN_ELEMENT_THEORY = SGP/SGP4

EPOCH          = 2026-02-19T04:33:30.194784
MEAN_MOTION    = 14.94998693
ECCENTRICITY   = .00452077
INCLINATION    = 98.4709
RA_OF_ASC_NODE = 15.7630
ARG_OF_PERICENTER = 15.5205
MEAN_ANOMALY   = 344.7388

EPHEMERIS_TYPE = 0
CLASSIFICATION_TYPE = U
NORAD_CAT_ID   = 38341
ELEMENT_SET_NO = 999
REV_AT_EPOCH   = 74545
BSTAR          = .36140641E-3
MEAN_MOTION_DOT = .3963E-4
MEAN_MOTION_DDOT = 0

CCSDS_OMM_VERS = 2.0
CREATION_DATE  = 
ORIGINATOR     = 

OBJECT_NAME    = SHIJIAN-16 (SJ-16)
OBJECT_ID      = 2013-057A
CENTER_NAME    = EARTH
REF_FRAME      = TEME
TIME_SYSTEM    = UTC
MEAN_ELEMENT_THEORY = SGP/SGP4

EPOCH          = 2026-02-19T06:14:04.662816
MEAN_MOTION    = 14.92266318
ECCENTRICITY   = .00163144
INCLINATION    = 74.9701
RA_OF_ASC_NODE = 219.9747
ARG_OF_PERICENTER = 159.2674
MEAN_ANOMALY   = 200.9180

EPHEMERIS_TYPE = 0
CLASSIFICATION_TYPE = U
NORAD_CAT_ID   = 39358
ELEMENT_SET_NO = 999
REV_AT_EPOCH   = 66875
BSTAR          = .11665685E-3
MEAN_MOTION_DOT = .1164E-4
MEAN_MOTION_DDOT = 0

